ONEWEB-0520             
1 54138U 22138AB  25113.71133964  .00000002  00000+0 -26067-4 0  9990
2 54138  87.9259  28.3308 0001736  67.8188 292.3129 13.19723746122367
ONEWEB-0521             
1 54139U 22138AC  25113.74451766  .00000030  00000+0  42006-4 0  9998
2 54139  87.9257  28.3123 0002118  84.9814 275.1560 13.19724639122340
ONEWEB-0522             
1 54140U 22138AD  25113.72398840  .00000060  00000+0  11745-3 0  9999
2 54140  87.9253  28.3182 0001773  79.1459 280.9873 13.19726673122352
ONEWEB-0523             
1 54141U 22138AE  25113.03483913 -.00000024  00000+0 -90861-4 0  9999
2 54141  87.9316 358.0950 0002252 104.2762 255.8621 13.20769544124719
ONEWEB-0524             
1 54142U 22138AF  25112.64500438  .00000088  00000+0  18577-3 0  9999
2 54142  87.9320 358.1737 0001348 116.7229 243.4042 13.20771217123797
ONEWEB-0525             
1 54143U 22138AG  25113.74290502 -.00002014  00000+0 -50644-2 0  9993
2 54143  87.9260  28.3315 0001727  70.1691 289.9628 13.19710985122377
ONEWEB-0526             
1 54144U 22138AH  25113.77610378 -.00000005  00000+0 -43850-4 0  9995
2 54144  87.9259  28.3149 0001826  76.6815 283.4522 13.19724662122357
ONEWEB-0529             
1 54145U 22138AJ  25112.71782897  .00000084  00000+0  17847-3 0  9996
2 54145  87.9264  28.5630 0001864  72.5553 287.5784 13.19724250121365
